GSAT0101 (GALILEO-PFM)  
1 37846U 11060A   26053.46432651 -.00000082  00000+0  00000+0 0  9992
2 37846  57.0318 344.8758 0003975 357.0591   2.9533  1.70475478 89166
GSAT0102 (GALILEO-FM2)  
1 37847U 11060B   26060.06318653 -.00000106  00000+0  00000+0 0  9999
2 37847  57.0301 344.6971 0005422 341.2092 154.1953  1.70475778 89286
GSAT0103 (GALILEO-FM3)  
1 38857U 12055A   26064.64990116  .00000009  00000+0  00000+0 0  9995
2 38857  55.7393 104.3859 0005425 285.5287  74.4915  1.70473457 83254
GSAT0201 (GALILEO 5)    
1 40128U 14050A   26062.23675925 -.00000027  00000+0  00000+0 0  9998
2 40128  48.9889 277.7718 1657553 175.2875 186.5034  1.85520013 76352
GSAT0202 (GALILEO 6)    
1 40129U 14050B   26065.18759423 -.00000036  00000+0  00000+0 0  9992
2 40129  49.0025 276.7356 1658927 176.1364 185.3302  1.85520810 78579
GSAT0203 (GALILEO 7)    
1 40544U 15017A   26058.52158611 -.00000103  00000+0  00000+0 0  9994
2 40544  56.8234 344.5881 0005161 295.0116  64.9415  1.70475495 67337
GSAT0204 (GALILEO 8)    
1 40545U 15017B   26058.19060141 -.00000102  00000+0  00000+0 0  9997
2 40545  56.8295 344.6151 0004389 286.3298  73.6287  1.70475370 30371
GSAT0205 (GALILEO 9)    
1 40889U 15045A   26043.95434207  .00000078  00000+0  00000+0 0  9996
2 40889  53.6403 225.6057 0359599  59.9658 303.5577  1.67410800 64211
GSAT0206 (GALILEO 10)   
1 40890U 15045B   26065.21845735  .00000020  00000+0  00000+0 0  9990
2 40890  54.9806 224.4444 0003724  50.3393 309.6334  1.70473773 65286
GSAT0209 (GALILEO 12)   
1 41174U 15079A   26064.80003714  .00000008  00000+0  00000+0 0  9996
2 41174  55.7602 104.0969 0004738 323.5937  36.4535  1.70474567 63014
GSAT0208 (GALILEO 11)   
1 41175U 15079B   26062.08735472  .00000015  00000+0  00000+0 0  9996
2 41175  55.7569 104.1685 0004163 323.7694  36.2890  1.70474318 63383
GSAT0211 (GALILEO 14)   
1 41549U 16030A   26064.55763471  .00000016  00000+0  00000+0 0  9994
2 41549  55.1310 224.5419 0003581  25.3389 334.6168  1.70473873 60900
GSAT0210 (GALILEO 13)   
1 41550U 16030B   26064.81491220  .00000018  00000+0  00000+0 0  9997
2 41550  55.1283 224.5329 0001200 195.2538 164.6814  1.70473987 60905
GSAT0207 (GALILEO 15)   
1 41859U 16069A   26059.22748061  .00000008  00000+0  00000+0 0  9997
2 41859  55.4267 104.1007 0005031 309.1503  50.8842  1.70474383 57546
GSAT0212 (GALILEO 16)   
1 41860U 16069B   26064.94685676  .00000007  00000+0  00000+0 0  9995
2 41860  55.4278 103.9372 0003643 335.6888  24.3725  1.70474702 57898
GSAT0213 (GALILEO 17)   
1 41861U 16069C   26064.72771558  .00000008  00000+0  00000+0 0  9998
2 41861  55.4302 103.9512 0005295 293.0089  67.0145  1.70474927 57752
GSAT0214 (GALILEO 18)   
1 41862U 16069D   26065.46034919  .00000006  00000+0  00000+0 0  9992
2 41862  55.4293 103.9236 0004341 297.3479  62.6840  1.70474815 57890
